[{"OBJECT_NAME":"BISONSAT","OBJECT_ID":"2015-058L","EPOCH":"2026-03-09T11:49:35.353056","MEAN_MOTION":15.13791398,"ECCENTRICITY":0.00792382,"INCLINATION":64.7598,"RA_OF_ASC_NODE":135.3937,"ARG_OF_PERICENTER":90.6713,"MEAN_ANOMALY":270.349,"EPHEMERIS_TYPE":0,"CLASSIFICATION_TYPE":"U","NORAD_CAT_ID":40974,"ELEMENT_SET_NO":999,"REV_AT_EPOCH":10051,"BSTAR":0.0006711096,"MEAN_MOTION_DOT":0.00012971,"MEAN_MOTION_DDOT":0},{"OBJECT_NAME":"TRANSPORTER-15 OBJECT DD","OBJECT_ID":"2025-276DD","EPOCH":"2026-03-09T18:14:00.417120","MEAN_MOTION":15.21415717,"ECCENTRICITY":0.00010897,"INCLINATION":97.4276,"RA_OF_ASC_NODE":144.305,"ARG_OF_PERICENTER":138.099,"MEAN_ANOMALY":222.0329,"EPHEMERIS_TYPE":0,"CLASSIFICATION_TYPE":"U","NORAD_CAT_ID":66765,"ELEMENT_SET_NO":999,"REV_AT_EPOCH":1534,"BSTAR":0.00044710703,"MEAN_MOTION_DOT":9.972e-5,"MEAN_MOTION_DDOT":0}]
